[{"OBJECT_NAME":"OBJECT J","OBJECT_ID":"2023-085J","EPOCH":"2026-03-09T22:47:59.920512","MEAN_MOTION":15.31507187,"ECCENTRICITY":0.00067028,"INCLINATION":97.4828,"RA_OF_ASC_NODE":180.1819,"ARG_OF_PERICENTER":41.7877,"MEAN_ANOMALY":318.3875,"EPHEMERIS_TYPE":0,"CLASSIFICATION_TYPE":"U","NORAD_CAT_ID":57012,"ELEMENT_SET_NO":999,"REV_AT_EPOCH":15156,"BSTAR":0.00064525349,"MEAN_MOTION_DOT":0.00019595,"MEAN_MOTION_DDOT":0},{"OBJECT_NAME":"STARLINK-33584","OBJECT_ID":"2025-015D","EPOCH":"2026-03-09T21:28:31.618560","MEAN_MOTION":15.30194261,"ECCENTRICITY":0.00012812,"INCLINATION":53.1619,"RA_OF_ASC_NODE":321.4267,"ARG_OF_PERICENTER":85.3339,"MEAN_ANOMALY":274.7808,"EPHEMERIS_TYPE":0,"CLASSIFICATION_TYPE":"U","NORAD_CAT_ID":62761,"ELEMENT_SET_NO":999,"REV_AT_EPOCH":6451,"BSTAR":0.0010987009,"MEAN_MOTION_DOT":0.00032317,"MEAN_MOTION_DDOT":0}]
